CCSDS_OMM_VERS = 2.0
CREATION_DATE  = 
ORIGINATOR     = 

OBJECT_NAME    = SL-4 R/B
OBJECT_ID      = 2014-021B
CENTER_NAME    = EARTH
REF_FRAME      = TEME
TIME_SYSTEM    = UTC
MEAN_ELEMENT_THEORY = SGP/SGP4

EPOCH          = 2026-02-04T15:12:19.901952
MEAN_MOTION    = 15.38128383
ECCENTRICITY   = .009907
INCLINATION    = 51.6066
RA_OF_ASC_NODE = 138.4045
ARG_OF_PERICENTER = 342.5093
MEAN_ANOMALY   = 17.2487

EPHEMERIS_TYPE = 0
CLASSIFICATION_TYPE = U
NORAD_CAT_ID   = 39679
ELEMENT_SET_NO = 999
REV_AT_EPOCH   = 65118
BSTAR          = .31138E-3
MEAN_MOTION_DOT = .13631E-3
MEAN_MOTION_DDOT = 0

CCSDS_OMM_VERS = 2.0
CREATION_DATE  = 
ORIGINATOR     = 

OBJECT_NAME    = ALOS-2
OBJECT_ID      = 2014-029A
CENTER_NAME    = EARTH
REF_FRAME      = TEME
TIME_SYSTEM    = UTC
MEAN_ELEMENT_THEORY = SGP/SGP4

EPOCH          = 2026-02-05T01:15:11.908224
MEAN_MOTION    = 14.79480563
ECCENTRICITY   = .0001513
INCLINATION    = 97.9224
RA_OF_ASC_NODE = 135.1189
ARG_OF_PERICENTER = 94.7750
MEAN_ANOMALY   = 265.3634

EPHEMERIS_TYPE = 0
CLASSIFICATION_TYPE = U
NORAD_CAT_ID   = 39766
ELEMENT_SET_NO = 999
REV_AT_EPOCH   = 63204
BSTAR          = .98534E-4
MEAN_MOTION_DOT = .685E-5
MEAN_MOTION_DDOT = 0

CCSDS_OMM_VERS = 2.0
CREATION_DATE  = 
ORIGINATOR     = 

OBJECT_NAME    = YAOGAN-29
OBJECT_ID      = 2015-069A
CENTER_NAME    = EARTH
REF_FRAME      = TEME
TIME_SYSTEM    = UTC
MEAN_ELEMENT_THEORY = SGP/SGP4

EPOCH          = 2026-02-05T04:55:12.814752
MEAN_MOTION    = 14.82955933
ECCENTRICITY   = .0002873
INCLINATION    = 98.0173
RA_OF_ASC_NODE = 64.5425
ARG_OF_PERICENTER = 90.1810
MEAN_ANOMALY   = 269.9732

EPHEMERIS_TYPE = 0
CLASSIFICATION_TYPE = U
NORAD_CAT_ID   = 41038
ELEMENT_SET_NO = 999
REV_AT_EPOCH   = 55106
BSTAR          = .27567E-4
MEAN_MOTION_DOT = .17E-5
MEAN_MOTION_DDOT = 0

CCSDS_OMM_VERS = 2.0
CREATION_DATE  = 
ORIGINATOR     = 

OBJECT_NAME    = ASTRO-H (HITOMI)
OBJECT_ID      = 2016-012A
CENTER_NAME    = EARTH
REF_FRAME      = TEME
TIME_SYSTEM    = UTC
MEAN_ELEMENT_THEORY = SGP/SGP4

EPOCH          = 2026-02-05T04:12:04.835808
MEAN_MOTION    = 15.09763790
ECCENTRICITY   = .0009886
INCLINATION    = 30.9979
RA_OF_ASC_NODE = 206.3331
ARG_OF_PERICENTER = 5.6410
MEAN_ANOMALY   = 354.4338

EPHEMERIS_TYPE = 0
CLASSIFICATION_TYPE = U
NORAD_CAT_ID   = 41337
ELEMENT_SET_NO = 999
REV_AT_EPOCH   = 54731
BSTAR          = .26367E-3
MEAN_MOTION_DOT = .446E-4
MEAN_MOTION_DDOT = 0

CCSDS_OMM_VERS = 2.0
CREATION_DATE  = 
ORIGINATOR     = 

OBJECT_NAME    = HXMT (HUIYAN)
OBJECT_ID      = 2017-034A
CENTER_NAME    = EARTH
REF_FRAME      = TEME
TIME_SYSTEM    = UTC
MEAN_ELEMENT_THEORY = SGP/SGP4

EPOCH          = 2026-02-05T02:59:43.681632
MEAN_MOTION    = 15.17028309
ECCENTRICITY   = .0031269
INCLINATION    = 43.0131
RA_OF_ASC_NODE = 197.6590
ARG_OF_PERICENTER = 26.4342
MEAN_ANOMALY   = 333.8093

EPHEMERIS_TYPE = 0
CLASSIFICATION_TYPE = U
NORAD_CAT_ID   = 42758
ELEMENT_SET_NO = 999
REV_AT_EPOCH   = 47759
BSTAR          = .43318E-3
MEAN_MOTION_DOT = .8599E-4
MEAN_MOTION_DDOT = 0

CCSDS_OMM_VERS = 2.0
CREATION_DATE  = 
ORIGINATOR     = 

OBJECT_NAME    = CZ-2C R/B
OBJECT_ID      = 2018-054D
CENTER_NAME    = EARTH
REF_FRAME      = TEME
TIME_SYSTEM    = UTC
MEAN_ELEMENT_THEORY = SGP/SGP4

EPOCH          = 2026-02-04T10:34:46.848864
MEAN_MOTION    = 15.93270476
ECCENTRICITY   = .0013498
INCLINATION    = 35.1296
RA_OF_ASC_NODE = 172.5170
ARG_OF_PERICENTER = 340.0546
MEAN_ANOMALY   = 19.9664

EPHEMERIS_TYPE = 0
CLASSIFICATION_TYPE = U
NORAD_CAT_ID   = 43521
ELEMENT_SET_NO = 999
REV_AT_EPOCH   = 42356
BSTAR          = .76887E-3
MEAN_MOTION_DOT = .287748E-2
MEAN_MOTION_DDOT = .32E-4

CCSDS_OMM_VERS = 2.0
CREATION_DATE  = 
ORIGINATOR     = 

OBJECT_NAME    = SAOCOM 1A
OBJECT_ID      = 2018-076A
CENTER_NAME    = EARTH
REF_FRAME      = TEME
TIME_SYSTEM    = UTC
MEAN_ELEMENT_THEORY = SGP/SGP4

EPOCH          = 2026-02-05T03:40:09.128352
MEAN_MOTION    = 14.82155015
ECCENTRICITY   = .0001424
INCLINATION    = 97.8861
RA_OF_ASC_NODE = 224.7870
ARG_OF_PERICENTER = 85.1493
MEAN_ANOMALY   = 274.9883

EPHEMERIS_TYPE = 0
CLASSIFICATION_TYPE = U
NORAD_CAT_ID   = 43641
ELEMENT_SET_NO = 999
REV_AT_EPOCH   = 39654
BSTAR          = .14115E-3
MEAN_MOTION_DOT = .1072E-4
MEAN_MOTION_DDOT = 0

CCSDS_OMM_VERS = 2.0
CREATION_DATE  = 
ORIGINATOR     = 

OBJECT_NAME    = H-2A R/B
OBJECT_ID      = 2018-084L
CENTER_NAME    = EARTH
REF_FRAME      = TEME
TIME_SYSTEM    = UTC
MEAN_ELEMENT_THEORY = SGP/SGP4

EPOCH          = 2026-02-04T14:35:34.816704
MEAN_MOTION    = 15.39870441
ECCENTRICITY   = .0026262
INCLINATION    = 98.8754
RA_OF_ASC_NODE = 245.9623
ARG_OF_PERICENTER = 136.6942
MEAN_ANOMALY   = 223.6369

EPHEMERIS_TYPE = 0
CLASSIFICATION_TYPE = U
NORAD_CAT_ID   = 43682
ELEMENT_SET_NO = 999
REV_AT_EPOCH   = 40068
BSTAR          = .56014E-3
MEAN_MOTION_DOT = .22452E-3
MEAN_MOTION_DDOT = 0

CCSDS_OMM_VERS = 2.0
CREATION_DATE  = 
ORIGINATOR     = 

OBJECT_NAME    = SAOCOM 1B
OBJECT_ID      = 2020-059A
CENTER_NAME    = EARTH
REF_FRAME      = TEME
TIME_SYSTEM    = UTC
MEAN_ELEMENT_THEORY = SGP/SGP4

EPOCH          = 2026-02-05T04:25:09.552576
MEAN_MOTION    = 14.82157938
ECCENTRICITY   = .0001325
INCLINATION    = 97.8858
RA_OF_ASC_NODE = 223.9162
ARG_OF_PERICENTER = 83.4739
MEAN_ANOMALY   = 276.6625

EPHEMERIS_TYPE = 0
CLASSIFICATION_TYPE = U
NORAD_CAT_ID   = 46265
ELEMENT_SET_NO = 999
REV_AT_EPOCH   = 29393
BSTAR          = .13431E-4
MEAN_MOTION_DOT = .55E-6
MEAN_MOTION_DDOT = 0

CCSDS_OMM_VERS = 2.0
CREATION_DATE  = 
ORIGINATOR     = 

OBJECT_NAME    = CSS (TIANHE)
OBJECT_ID      = 2021-035A
CENTER_NAME    = EARTH
REF_FRAME      = TEME
TIME_SYSTEM    = UTC
MEAN_ELEMENT_THEORY = SGP/SGP4

EPOCH          = 2026-02-05T01:32:39.116832
MEAN_MOTION    = 15.59199103
ECCENTRICITY   = .0005736
INCLINATION    = 41.4675
RA_OF_ASC_NODE = 46.4558
ARG_OF_PERICENTER = 2.2011
MEAN_ANOMALY   = 357.8851

EPHEMERIS_TYPE = 0
CLASSIFICATION_TYPE = U
NORAD_CAT_ID   = 48274
ELEMENT_SET_NO = 999
REV_AT_EPOCH   = 27251
BSTAR          = .21887E-3
MEAN_MOTION_DOT = .17371E-3
MEAN_MOTION_DDOT = 0

CCSDS_OMM_VERS = 2.0
CREATION_DATE  = 
ORIGINATOR     = 

OBJECT_NAME    = COSMOS 2550
OBJECT_ID      = 2021-056A
CENTER_NAME    = EARTH
REF_FRAME      = TEME
TIME_SYSTEM    = UTC
MEAN_ELEMENT_THEORY = SGP/SGP4

EPOCH          = 2026-02-05T02:37:11.897472
MEAN_MOTION    = 15.33832820
ECCENTRICITY   = .000833
INCLINATION    = 67.1448
RA_OF_ASC_NODE = 139.4818
ARG_OF_PERICENTER = 270.0704
MEAN_ANOMALY   = 89.9495

EPHEMERIS_TYPE = 0
CLASSIFICATION_TYPE = U
NORAD_CAT_ID   = 48865
ELEMENT_SET_NO = 999
REV_AT_EPOCH   = 25846
BSTAR          = .11066E-3
MEAN_MOTION_DOT = .3451E-4
MEAN_MOTION_DDOT = 0

CCSDS_OMM_VERS = 2.0
CREATION_DATE  = 
ORIGINATOR     = 

OBJECT_NAME    = CZ-2C R/B
OBJECT_ID      = 2022-058K
CENTER_NAME    = EARTH
REF_FRAME      = TEME
TIME_SYSTEM    = UTC
MEAN_ELEMENT_THEORY = SGP/SGP4

EPOCH          = 2026-02-04T13:39:32.248800
MEAN_MOTION    = 15.51895625
ECCENTRICITY   = .004239
INCLINATION    = 50.1894
RA_OF_ASC_NODE = 128.3576
ARG_OF_PERICENTER = 60.3489
MEAN_ANOMALY   = 300.1692

EPHEMERIS_TYPE = 0
CLASSIFICATION_TYPE = U
NORAD_CAT_ID   = 52794
ELEMENT_SET_NO = 999
REV_AT_EPOCH   = 20498
BSTAR          = .51409E-3
MEAN_MOTION_DOT = .32282E-3
MEAN_MOTION_DDOT = 0

