SL-4 R/B                
1 39679U 14021B   26035.63356368  .00013631  00000+0  31138-3 0  9990
2 39679  51.6066 138.4045 0099070 342.5093  17.2487 15.38128383651188
ALOS-2                  
1 39766U 14029A   26036.05222116  .00000685  00000+0  98534-4 0  9994
2 39766  97.9224 135.1189 0001513  94.7750 265.3634 14.79480563632047
YAOGAN-29               
1 41038U 15069A   26036.20500943  .00000170  00000+0  27567-4 0  9995
2 41038  98.0173  64.5425 0002873  90.1810 269.9732 14.82955933551065
ASTRO-H (HITOMI)        
1 41337U 16012A   26036.17505597  .00004460  00000+0  26367-3 0  9994
2 41337  30.9979 206.3331 0009886   5.6410 354.4338 15.09763790547319
HXMT (HUIYAN)           
1 42758U 17034A   26036.12481113  .00008599  00000+0  43318-3 0  9991
2 42758  43.0131 197.6590 0031269  26.4342 333.8093 15.17028309477596
CZ-2C R/B               
1 43521U 18054D   26035.44082001  .00287748  32000-4  76887-3 0  9992
2 43521  35.1296 172.5170 0013498 340.0546  19.9664 15.93270476423562
SAOCOM 1A               
1 43641U 18076A   26036.15288343  .00001072  00000+0  14115-3 0  9995
2 43641  97.8861 224.7870 0001424  85.1493 274.9883 14.82155015396540
H-2A R/B                
1 43682U 18084L   26035.60804186  .00022452  00000+0  56014-3 0  9996
2 43682  98.8754 245.9623 0026262 136.6942 223.6369 15.39870441400687
SAOCOM 1B               
1 46265U 20059A   26036.18413834  .00000055  00000+0  13431-4 0  9993
2 46265  97.8858 223.9162 0001325  83.4739 276.6625 14.82157938293938
CSS (TIANHE)            
1 48274U 21035A   26036.06434163  .00017371  00000+0  21887-3 0  9997
2 48274  41.4675  46.4558 0005736   2.2011 357.8851 15.59199103272510
COSMOS 2550             
1 48865U 21056A   26036.10916548  .00003451  00000+0  11066-3 0  9995
2 48865  67.1448 139.4818 0008330 270.0704  89.9495 15.33832820258465
CZ-2C R/B               
1 52794U 22058K   26035.56912325  .00032282  00000+0  51409-3 0  9991
2 52794  50.1894 128.3576 0042390  60.3489 300.1692 15.51895625204987
